NORAD_CAT_ID,OBJECT_NAME,OBJECT_TYPE,EPOCH,MEAN_MOTION,ECCENTRICITY,INCLINATION,RA_OF_ASC_NODE,ARG_OF_PERICENTER,MEAN_ANOMALY,BSTAR,MEAN_MOTION_DOT,MEAN_MOTION_DDOT,TLE_LINE0,TLE_LINE1,TLE_LINE2,SEMIMAJOR_AXIS,PERIOD,APOGEE,PERIGEE,DECAYED
49150.0,STARLINK-3104,PAYLOAD,2022-12-23 23:43:56,14.98329285,0.0003323,70.0,8.732999999999999,265.611,94.467,0.00014747,1.667e-05,0.0,0 STARLINK-3104,1 49150U 21082W   22357.98885153  .00001667  00000-0  14747-3 0  9994,2 49150  70.0000   8.7330 0003323 265.6110  94.4670 14.98329285 71673,6950.195,96.107,574.37,569.751,0.0
49150.0,STARLINK-3104,PAYLOAD,2022-12-24 07:44:36,14.98334665,0.0003342,70.0,7.8914,265.723,94.3547,0.00010758,1.191e-05,0.0,0 STARLINK-3104,1 49150U 21082W   22358.32264860  .00001191  00000-0  10758-3 0  9999,2 49150  70.0000   7.8914 0003342 265.7230  94.3547 14.98334665 71711,6950.178000000001,96.107,574.366,569.721,0.0
49150.0,STARLINK-3104,PAYLOAD,2022-12-25 01:22:05,14.983328899999998,0.0003301,70.0002,6.0398,265.2066,94.8716,0.00019655,2.253e-05,0.0,0 STARLINK-3104,1 49150U 21082W   22359.05700525  .00002253  00000-0  19655-3 0  9998,2 49150  70.0002   6.0398 0003301 265.2066  94.8716 14.98332890 71831,6950.184,96.107,574.3430000000002,569.755,0.0
49150.0,STARLINK-3104,PAYLOAD,2022-12-25 07:46:37,14.98329173,0.0003311,70.0,5.3664,264.9484,95.1297,0.000151,1.709e-05,0.0,0 STARLINK-3104,1 49150U 21082W   22359.32404943  .00001709  00000-0  15100-3 0  9999,2 49150  70.0000   5.3664 0003311 264.9484  95.1297 14.98329173 71869,6950.195,96.107,574.362,569.759,0.0
49150.0,STARLINK-3104,PAYLOAD,2022-12-25 10:58:54,14.98328435,0.0003305,70.0,5.0297,264.9179,95.1603,0.00013747,1.548e-05,0.0,0 STARLINK-3104,1 49150U 21082W   22359.45757051  .00001548  00000-0  13747-3 0  9990,2 49150  70.0000   5.0297 0003305 264.9179  95.1603 14.98328435 71896,6950.198,96.107,574.36,569.766,0.0
49150.0,STARLINK-3104,PAYLOAD,2022-12-26 11:00:54,14.98336104,0.0003049,70.0006,2.5048,263.769,96.3121,7.6312e-05,8.18e-06,0.0,0 STARLINK-3104,1 49150U 21082W   22360.45896568  .00000818  00000-0  76312-4 0  9996,2 49150  70.0006   2.5048 0003049 263.7690  96.3121 14.98336104 72046,6950.174,96.107,574.158,569.92,0.0
49150.0,STARLINK-3104,PAYLOAD,2022-12-27 11:02:55,14.983264800000002,0.0002997,70.0004,359.981,268.7106,91.371,0.0001686999999999,1.92e-05,0.0,0 STARLINK-3104,1 49150U 21082W   22361.46037013  .00001920  00000-0  16870-3 0  9997,2 49150  70.0004 359.9810 0002997 268.7106  91.3710 14.98326480 72188,6950.204000000002,96.107,574.1519999999998,569.986,0.0
49150.0,STARLINK-3104,PAYLOAD,2022-12-27 17:27:27,14.98339355,0.0003123,70.0,359.3068,263.9883,96.092,0.00018354,2.098e-05,0.0,0 STARLINK-3104,1 49150U 21082W   22361.72740054  .00002098  00000-0  18354-3 0  9998,2 49150  70.0000 359.3068 0003123 263.9883  96.0920 14.98339355 72230,6950.1640000000025,96.106,574.1990000000002,569.8580000000002,0.0
49150.0,STARLINK-3104,PAYLOAD,2022-12-27 23:51:59,14.98333296,0.0002815,70.0001,358.6335,258.1532,101.9311,0.00042697,5.006e-05,0.0,0 STARLINK-3104,1 49150U 21082W   22361.99443831  .00005006  00000-0  42697-3 0  9999,2 49150  70.0001 358.6335 0002815 258.1532 101.9311 14.98333296 72265,6950.183000000001,96.107,574.004,570.091,0.0
49150.0,STARLINK-3104,PAYLOAD,2022-12-28 23:53:59,14.98359909,0.0003562,70.0018,356.1083,264.9641,95.1111,-0.00090219,-0.0001085,0.0,0 STARLINK-3104,1 49150U 21082W   22362.99582849 -.00010850  00000-0 -90219-3 0  9991,2 49150  70.0018 356.1083 0003562 264.9641  95.1111 14.98359909 72421,6950.1,96.105,574.441,569.49,0.0
49150.0,STARLINK-3104,PAYLOAD,2022-12-29 06:18:33,14.98326278,0.0002731,70.0031,355.4359,260.2363,99.8487,-5.3448e-05,-7.31e-06,0.0,0 STARLINK-3104,1 49150U 21082W   22363.26288460 -.00000731  00000-0 -53448-4 0  9995,2 49150  70.0031 355.4359 0002731 260.2363  99.8487 14.98326278 72465,6950.204000000002,96.107,573.9680000000002,570.1709999999998,0.0
49150.0,STARLINK-3104,PAYLOAD,2022-12-30 03:08:17,14.98335993,0.0003242,70.0007,353.247,266.0932,93.9857,3.636e-06,-5e-07,0.0,0 STARLINK-3104,1 49150U 21082W   22364.13076169 -.00000050  00000-0  36360-5 0  9991,2 49150  70.0007 353.2470 0003242 266.0932  93.9857 14.98335993 72596,6950.174,96.107,574.293,569.786,0.0
49150.0,STARLINK-3104,PAYLOAD,2022-12-30 09:32:48,14.98360074,0.0002836,70.0005,352.5731,258.9206,101.1634,-0.00028091,-3.446e-05,0.0,0 STARLINK-3104,1 49150U 21082W   22364.39778778 -.00003446  00000-0 -28091-3 0  9997,2 49150  70.0005 352.5731 0002836 258.9206 101.1634 14.98360074 72636,6950.1,96.105,573.936,569.994,0.0
49150.0,STARLINK-3104,PAYLOAD,2022-12-31 01:34:10,14.98341248,0.0003106999999999,70.002,350.8898,266.2303,93.8501,0.00042053,4.93e-05,0.0,0 STARLINK-3104,1 49150U 21082W   22365.06539585  .00004930  00000-0  42053-3 0  9994,2 49150  70.0020 350.8898 0003107 266.2303  93.8501 14.98341248 72733,6950.158,96.106,574.183,569.864,0.0
49150.0,STARLINK-3104,PAYLOAD,2022-12-31 09:34:50,14.98338842,0.000316,70.0019,350.0483,265.9853,94.0945,0.00030834,3.589e-05,0.0,0 STARLINK-3104,1 49150U 21082W   22365.39919567  .00003589  00000-0  30834-3 0  9995,2 49150  70.0019 350.0483 0003160 265.9853  94.0945 14.98338842 72773,6950.166,96.106,574.227,569.8340000000002,0.0
49150.0,STARLINK-3104,PAYLOAD,2022-12-31 15:59:22,14.98346557,0.0003207,70.0022,349.3751,265.9081,94.1711,0.00036351,4.249e-05,0.0,0 STARLINK-3104,1 49150U 21082W   22365.66623043  .00004249  00000-0  36351-3 0  9990,2 49150  70.0022 349.3751 0003207 265.9081  94.1711 14.98346557 72810,6950.142,96.106,574.236,569.778,0.0
49150.0,STARLINK-3104,PAYLOAD,2023-01-01 00:00:02,14.98342375,0.0002713,70.0039,348.5359,262.9538,97.1312,0.00020102,2.307e-05,0.0,0 STARLINK-3104,1 49150U 21082W   23001.00003260  .00002307  00000-0  20102-3 0  9999,2 49150  70.0039 348.5359 0002713 262.9538  97.1312 14.98342375 72878,6950.155,96.106,573.905,570.134,0.0
49150.0,STARLINK-3104,PAYLOAD,2023-01-01 09:36:51,14.98324073,0.000302,70.0028,347.5238,266.8468,93.2345,-0.00016639,-2.077e-05,0.0,0 STARLINK-3104,1 49150U 21082W   23001.40060017 -.00002077  00000-0 -16639-3 0  9992,2 49150  70.0028 347.5238 0003020 266.8468  93.2345 14.98324073 72933,6950.2109999999975,96.107,574.175,569.977,0.0
49150.0,STARLINK-3104,PAYLOAD,2023-01-01 22:25:56,14.98324774,0.0003364,70.0009,346.1765,264.7996,95.2779,-4.9193000000000005e-06,-1.52e-06,0.0,0 STARLINK-3104,1 49150U 21082W   23001.93468346 -.00000152  00000-0 -49193-5 0  9992,2 49150  70.0009 346.1765 0003364 264.7996  95.2779 14.98324774 73006,6950.209,96.107,574.4119999999998,569.736,0.0
49150.0,STARLINK-3104,PAYLOAD,2023-01-02 09:38:52,14.98331742,0.0003058999999999,70.001,344.9988,264.5865,95.4945,5.9275e-05,6.14e-06,0.0,0 STARLINK-3104,1 49150U 21082W   23002.40199857  .00000614  00000-0  59275-4 0  9995,2 49150  70.0010 344.9988 0003059 264.5865  95.4945 14.98331742 73083,6950.188,96.107,574.179,569.9259999999998,0.0
49150.0,STARLINK-3104,PAYLOAD,2023-01-02 19:15:40,14.98339963,0.0003265,70.0006,343.9886,266.0233,94.0552,6.8248e-05,7.22e-06,0.0,0 STARLINK-3104,1 49150U 21082W   23002.80255176  .00000722  00000-0  68248-4 0  9996,2 49150  70.0006 343.9886 0003265 266.0233  94.0552 14.98339963 73148,6950.1619999999975,96.106,574.2959999999998,569.758,0.0
49150.0,STARLINK-3104,PAYLOAD,2023-01-02 22:27:57,14.98329093,0.0003211,70.0013,343.6522,264.7816,95.2977,0.00011282,1.253e-05,0.0,0 STARLINK-3104,1 49150U 21082W   23002.93607769  .00001253  00000-0  11282-3 0  9994,2 49150  70.0013 343.6522 0003211 264.7816  95.2977 14.98329093 73151,6950.196,96.107,574.2919999999998,569.8290000000002,0.0
49150.0,STARLINK-3104,PAYLOAD,2023-01-03 08:04:45,14.98325955,0.0003153999999999,70.0012,342.6423,265.525,94.5549,8.345700000000001e-05,9.03e-06,0.0,0 STARLINK-3104,1 49150U 21082W   23003.33664231  .00000903  00000-0  83457-4 0  9991,2 49150  70.0012 342.6423 0003154 265.5250  94.5549 14.98325955 73213,6950.205,96.107,574.262,569.878,0.0
49150.0,STARLINK-3104,PAYLOAD,2023-01-03 16:05:26,14.98315268,0.0003103,70.0008,341.8005,270.5307,89.5496,0.00040524,4.744e-05,0.0,0 STARLINK-3104,1 49150U 21082W   23003.67044574  .00004744  00000-0  40524-3 0  9994,2 49150  70.0008 341.8005 0003103 270.5307  89.5496 14.98315268 73275,6950.238,96.108,574.26,569.947,0.0
49150.0,STARLINK-3104,PAYLOAD,2023-01-04 04:54:30,14.98329923,0.0003021,70.0013,340.4535,262.2863,97.7953,9.6959e-05,1.064e-05,0.0,0 STARLINK-3104,1 49150U 21082W   23004.20452059  .00001064  00000-0  96959-4 0  9991,2 49150  70.0013 340.4535 0003021 262.2863  97.7953 14.98329923 73359,6950.193,96.107,574.158,569.9580000000002,0.0
49150.0,STARLINK-3104,PAYLOAD,2023-01-04 08:06:46,14.98329004,0.0003101,70.0009,340.1171,264.8899,95.1906,7.3378e-05,7.83e-06,0.0,0 STARLINK-3104,1 49150U 21082W   23004.33804274  .00000783  00000-0  73378-4 0  9992,2 49150  70.0009 340.1171 0003101 264.8899  95.1906 14.98329004 73364,6950.196,96.107,574.216,569.906,0.0
49150.0,STARLINK-3104,PAYLOAD,2023-01-04 16:07:26,14.9833759,0.0003187,70.0008,339.2758,266.1293,93.9502,0.00010282,1.134e-05,0.0,0 STARLINK-3104,1 49150U 21082W   23004.67183584  .00001134  00000-0  10282-3 0  9998,2 49150  70.0008 339.2758 0003187 266.1293  93.9502 14.98337590 73413,6950.169,96.107,574.249,569.819,0.0
49150.0,STARLINK-3104,PAYLOAD,2023-01-05 08:08:46,14.98343739,0.0003225,70.0008,337.5926,265.0209,95.0582,0.00029112,3.384e-05,0.0,0 STARLINK-3104,1 49150U 21082W   23005.33942566  .00003384  00000-0  29112-3 0  9996,2 49150  70.0008 337.5926 0003225 265.0209  95.0582 14.98343739 73524,6950.15,96.106,574.257,569.774,0.0
49150.0,STARLINK-3104,PAYLOAD,2023-01-06 08:10:47,14.98334196,0.0003208999999999,70.0025,335.0685,261.1544,98.9251,-4.0397e-05,-5.75e-06,0.0,0 STARLINK-3104,1 49150U 21082W   23006.34083050 -.00000575  00000-0 -40397-4 0  9992,2 49150  70.0025 335.0685 0003209 261.1544  98.9251 14.98334196 73677,6950.18,96.107,574.275,569.815,0.0
